#dP2024 11  3  6  0  0.00000000      96 __u+U IGS20 EXT  IAC
## 2339  21600.00000000   900.00000000 60617 0.2500000000000
+   52   G02G03G04G05G06G07G08G09G10G11G12G13G14G15G16G17G18
+        G19G20G21G22G23G24G25G26G27G28G29G30G31G32R01R02R03
+        R04R05R07R08R09R11R12R14R15R16R17R18R19R20R21R22R24
+        R26  0  0  0  0  0  0  0  0  0  0  0  0  0  0  0  0
+          0  0  0  0  0  0  0  0  0  0  0  0  0  0  0  0  0
++         8  8  7  7  8  7  8  7  8  7  8  8  9  8  8  9  8
++         8  8  8  7  7  7  8 12  7  7  8  7  7  8  9  8  8
++        10  7  8  9  8  7  9  9  9 10  8  7  8  9  8  7  8
++         8  0  0  0  0  0  0  0  0  0  0  0  0  0  0  0  0
++         0  0  0  0  0  0  0  0  0  0  0  0  0  0  0  0  0
%c M  cc GPS ccc cccc cccc cccc cccc ccccc ccccc ccccc ccccc
%c cc cc ccc ccc cccc cccc cccc cccc ccccc ccccc ccccc ccccc
%f  0.0000000  0.000000000  0.00000000000  0.000000000000000
%f  0.0000000  0.000000000  0.00000000000  0.000000000000000
%i    0    0    0    0      0      0      0      0         0
%i    0    0    0    0      0      0      0      0         0
/* IAC                                ULTRA-RAPID PREDICTION
/* S/V CLOCKS ARE ALIGNED TO GNSS TIME                      
/* G:C1WC2W R:C1PC2P E:C1XC5X C:C2IC6I J:C1CC2S             
/* PCV:IGS20_2317 OL/AL:FES2004  NONE     YN ORB:CoN CLK:CoN
*  2024 11 03 20  0  0.00000000
PG02 -15247.882598 -13164.970697 -17017.301302   -322.636752
PG03 -12684.338205 -22382.928031   6658.900475    589.797428
PG04  -8551.052193 -12847.157092  21615.294556    473.268430
PG05   4162.888348  24742.519587   8436.201353   -191.876571
PG06 -20627.769060   6433.981884  15592.401085    -87.201818
PG07 -25566.630886  -7325.387249   3882.562376    -22.484307
PG08    913.120445 -20563.915123 -16653.615997    403.578142
PG09 -16094.147766  -3194.829001  20803.472270    427.600682
PG10  13081.690652  -6491.258089 -21949.292664   -182.313103
PG11  -7091.238501  13727.705800  21632.146328   -748.281633
PG12   9176.048692  24756.892352   2810.650172   -549.652734
PG13 -10638.380647  20917.291225 -12438.675734    684.472794
PG14 -15499.042393   2437.070370 -21400.512516    532.005492
PG15   2209.938766  20639.274325 -17009.275408    223.495839
PG16   2267.230868 -23277.863771  11802.539045   -137.725941
PG17 -21221.600581  11457.238227 -10916.211027    572.172897
PG18  25967.035929   6012.534571   1336.772268   -659.757613
PG19 -19986.287289  16980.506078  -2443.449962    558.477405
PG20  -3256.446299  19475.855961  17908.064425    369.063879
PG21  -9529.782021 -14704.233322 -19862.586690     98.301934
PG22 -11764.707384  11534.109053 -20498.264393    -76.565226
PG23  16822.696828   8301.723785 -18859.208194    355.659402
PG24  12886.280426  14744.235147 -18576.968298   -482.135842
PG25  16418.729981  15912.090893  13387.845683    499.234789
PG26   9019.693989 -15177.273300  19565.399237     38.555347
PG27  10784.231649 -22563.354005  -8569.933533    -34.742808
PG28  21965.378083  -6355.914415  13501.701226   -467.535140
PG29  14935.066388   5575.413786  21223.876287   -566.504304
PG30 -25668.071909    874.536854  -7151.074130   -289.275458
PG31  12779.081320 -11841.181913  19907.632906   -222.364750
PG32  20135.283061 -14228.906986  -9384.252877   -578.580066
PR01  12962.319180 -11590.267628 -18669.062881    103.240940
PR02  10320.126207 -22924.475893  -4039.184101    -25.497385
PR03   1195.652953 -21859.757141  13074.785832    110.665976
PR04  -7842.657239  -8922.471570  22593.681216    262.321722
PR05 -13070.276865   8723.397526  20109.269607    140.146697
PR07  -1053.528928  21730.315500 -13331.534886     94.243404
PR08   8087.283457   8706.361793 -22521.900599     -6.321901
PR09  -2957.109296  12766.864385 -21851.226216    218.463204
PR11  18100.155745  17402.967682   4450.850576      7.698906
PR12  15340.676174   2895.830186  20199.148369     46.813797
PR14 -10726.365035 -20295.701060  11153.481048     27.165506
PR15 -18339.971546 -16632.821534  -6135.427744     74.464584
PR16 -15346.074140  -3128.332810 -20137.986374     30.491593
PR17  -3535.509788 -10150.996299 -23114.856698    136.646984
PR18 -19168.094590  -4265.896115 -16282.226072    170.123237
PR19 -25237.900492   2071.305959  -3013.886046   -297.173760
PR20 -16330.232687   9855.593243  16970.218097   -121.411902
PR21   2483.751596  10291.655093  23214.547407   -148.274954
PR22  19916.637925   4461.045289  15327.504524      1.121759
PR24  15351.557329 -11046.939427 -17104.305596    -78.668603
PR26   7373.434978  10288.299417 -22127.072449   -487.879312
*  2024 11 03 20 15  0.00000000
PG02 -13131.499335 -13173.528525 -18622.486614   -322.629150
PG03 -12753.969665 -23018.386043   3841.030711    589.807246
PG04  -6937.575915 -14674.022744  21008.503492    473.274363
PG05   3504.147949  23793.962587  11020.248992   -191.877673
PG06 -22226.155589   6053.884765  13391.863331    -87.227592
PG07 -25004.808387  -7484.493684   6608.110146    -22.481781
PG08   2142.308406 -21887.032551 -14687.743476    403.587830
PG09 -14685.135991  -5182.333384  21427.539545    427.615853
PG10  14039.033345  -4123.400898 -21960.145378   -182.325721
PG11  -9470.703161  13220.053258  21022.409418   -748.283516
PG12   8996.663736  25013.829650    -39.063684   -549.655084
PG13 -11685.907247  21638.319759  -9951.892184    684.474283
PG14 -16320.135813    144.309175 -20944.873068    532.012956
PG15   1167.219437  22079.594506 -15129.366589    223.499882
PG16   2948.932410 -21866.315142  14104.915369   -137.717074
PG17 -20416.321920  10250.213443 -13285.503149    572.160349
PG18  25629.164670   6157.974903   4183.057158   -659.758270
PG19 -19879.968668  16482.995117  -5287.992981    558.481493
PG20  -4491.588907  17754.210328  19364.047065    369.063571
PG21  -7147.011409 -14633.353882 -20777.099661     98.301159
PG22 -12527.147606   9191.036425 -21178.624917    -76.567944
PG23  17547.434018  10229.702505 -17200.905912    355.666638
PG24  10774.080754  14778.553833 -19846.055973   -482.134225
PG25  16773.749218  17328.284401  11071.360157    499.234647
PG26  10189.827254 -13142.642773  20470.420779     38.544425
PG27  11486.870678 -23032.323601  -5854.871809    -34.742809
PG28  23346.082207  -5992.077433  11149.393225   -467.546114
PG29  13301.087594   7417.933007  21728.726695   -566.501790
PG30 -26299.078819    485.947513  -4467.482656   -289.268527
PG31  14976.305125 -11366.837465  18660.833059   -222.364186
PG32  19560.512376 -13091.245620 -11885.474960   -578.575593
PR01  12230.889726  -9294.752343 -20369.081754    103.242168
PR02   9948.154746 -22310.814048  -7171.762373    -25.497508
PR03   1494.316207 -23273.498441  10294.782376    110.666626
PR04  -7045.768928 -11530.735724  21653.307836    262.323378
PR05 -12188.798131   6310.153657  21513.566806    140.147261
PR07  -1362.265392  23184.770131 -10581.724925     94.244086
PR08   7307.510477  11329.764585 -21608.813355     -6.321776
PR09  -4869.857734  10799.127925 -22564.516332    218.465142
PR11  18446.337414  17560.255141   1262.672267      7.698169
PR12  17013.925089   4590.456978  18470.244169     46.814259
PR14  -9742.401714 -19108.351406  13832.416478     27.165611
PR15 -18818.092024 -16960.643520  -2996.205262     74.464400
PR16 -17032.060636  -4806.714502 -18378.567663     30.491949
PR17   -742.074772 -10755.506346 -23103.899878    136.650091
PR18 -17036.836875  -4559.116945 -18424.577884    170.125074
PR19 -24640.258082   2184.716882  -6194.325049   -297.174818
PR20 -18223.089082  10337.048220  14590.255495   -121.412338
PR21   -313.643906  10875.304881  23076.007982   -148.277727
PR22  17905.917069   4716.899043  17572.355693      1.111246
PR24  17255.485116 -11571.670313 -14791.442664    -78.669950
PR26   6640.999545  12851.975836 -20988.939499   -487.841845
EOF
